{"type": "FeatureCollection", "features": [ {"type": "Feature", "properties": {"norad_id": 45358, "name": "COSMOS 2545 (760)", "group": "glo-ops", "lat": 63.660853590014504, "lon": 33.26608537478654, "alt_km": 19151.056423685663, "timestamp": "2025-12-26T15:29:39.700600+00:00", "meta": {"OBJECT_NAME": "COSMOS 2545 (760)", "OBJECT_ID": "2020-018A", "EPOCH": "2025-12-26T01:37:18.289920", "MEAN_MOTION": 2.13102654, "ECCENTRICITY": 0.00112779, "INCLINATION": 64.4616, "RA_OF_ASC_NODE": 318.5028, "ARG_OF_PERICENTER": 250.7597, "MEAN_ANOMALY": 109.1229, "EPHEMERIS_TYPE": 0, "CLASSIFICATION_TYPE": "U", "NORAD_CAT_ID": 45358, "ELEMENT_SET_NO": 999, "REV_AT_EPOCH": 4497, "BSTAR": 0, "MEAN_MOTION_DOT": -3.5e-07, "MEAN_MOTION_DDOT": 0}, "tle": {"line1": "1 45358U 20018A   25360.06757280 -.00000035  00000+0  00000+0 0  9994", "line2": "2 45358  64.4616 318.5028 0011277 250.7597 109.1229  2.13102654 44976"}}, "geometry": {"type": "Point", "coordinates": [33.26608537478654, 63.660853590014504]}}, {"type": "Feature", "properties": {"norad_id": 46805, "name": "COSMOS 2547 (705K)", "group": "glo-ops", "lat": -52.09903855073741, "lon": 160.59983227749962, "alt_km": 19131.00465845406, "timestamp": "2025-12-26T15:29:39.700612+00:00", "meta": {"OBJECT_NAME": "COSMOS 2547 (705K)", "OBJECT_ID": "2020-075A", "EPOCH": "2025-12-24T20:21:03.584160", "MEAN_MOTION": 2.13100193, "ECCENTRICITY": 0.00061113, "INCLINATION": 64.5968, "RA_OF_ASC_NODE": 198.292, "ARG_OF_PERICENTER": 227.5617, "MEAN_ANOMALY": 132.4433, "EPHEMERIS_TYPE": 0, "CLASSIFICATION_TYPE": "U", "NORAD_CAT_ID": 46805, "ELEMENT_SET_NO": 999, "REV_AT_EPOCH": 4019, "BSTAR": 0, "MEAN_MOTION_DOT": 1.02e-06, "MEAN_MOTION_DDOT": 0}, "tle": {"line1": "1 46805U 20075A   25358.84795815  .00000102  00000+0  00000+0 0  9998", "line2": "2 46805  64.5968 198.2920 0006111 227.5617 132.4433  2.13100193 40197"}}, "geometry": {"type": "Point", "coordinates": [160.59983227749962, -52.09903855073741]}}, {"type": "Feature", "properties": {"norad_id": 52984, "name": "COSMOS 2557 (706K)", "group": "glo-ops", "lat": 7.132283250522657, "lon": 137.11280094810718, "alt_km": 19139.26337128183, "timestamp": "2025-12-26T15:29:39.700623+00:00", "meta": {"OBJECT_NAME": "COSMOS 2557 (706K)", "OBJECT_ID": "2022-075A", "EPOCH": "2025-12-25T22:50:27.414816", "MEAN_MOTION": 2.13102015, "ECCENTRICITY": 0.00135372, "INCLINATION": 64.4024, "RA_OF_ASC_NODE": 320.5875, "ARG_OF_PERICENTER": 278.4992, "MEAN_ANOMALY": 81.3515, "EPHEMERIS_TYPE": 0, "CLASSIFICATION_TYPE": "U", "NORAD_CAT_ID": 52984, "ELEMENT_SET_NO": 999, "REV_AT_EPOCH": 2702, "BSTAR": 0, "MEAN_MOTION_DOT": -3.5e-07, "MEAN_MOTION_DDOT": 0}, "tle": {"line1": "1 52984U 22075A   25359.95170619 -.00000035  00000+0  00000+0 0  9993", "line2": "2 52984  64.4024 320.5875 0013537 278.4992  81.3515  2.13102015 27029"}}, "geometry": {"type": "Point", "coordinates": [137.11280094810718, 7.132283250522657]}}, {"type": "Feature", "properties": {"norad_id": 54031, "name": "COSMOS 2559 (707K)", "group": "glo-ops", "lat": -42.787806829989094, "lon": -65.71927026536744, "alt_km": 19149.58959956882, "timestamp": "2025-12-26T15:29:39.700634+00:00", "meta": {"OBJECT_NAME": "COSMOS 2559 (707K)", "OBJECT_ID": "2022-130A", "EPOCH": "2025-12-25T07:14:23.309088", "MEAN_MOTION": 2.13101233, "ECCENTRICITY": 0.0011493, "INCLINATION": 64.3751, "RA_OF_ASC_NODE": 320.6993, "ARG_OF_PERICENTER": 191.6749, "MEAN_ANOMALY": 168.3019, "EPHEMERIS_TYPE": 0, "CLASSIFICATION_TYPE": "U", "NORAD_CAT_ID": 54031, "ELEMENT_SET_NO": 999, "REV_AT_EPOCH": 2498, "BSTAR": 0, "MEAN_MOTION_DOT": -3.5e-07, "MEAN_MOTION_DDOT": 0}, "tle": {"line1": "1 54031U 22130A   25359.30165867 -.00000035  00000+0  00000+0 0  9998", "line2": "2 54031  64.3751 320.6993 0011493 191.6749 168.3019  2.13101233 24985"}}, "geometry": {"type": "Point", "coordinates": [-65.71927026536744, -42.787806829989094]}}, {"type": "Feature", "properties": {"norad_id": 54377, "name": "COSMOS 2564 (761)", "group": "glo-ops", "lat": 58.483210448745794, "lon": -111.17946341139607, "alt_km": 19138.325128303917, "timestamp": "2025-12-26T15:29:39.700645+00:00", "meta": {"OBJECT_NAME": "COSMOS 2564 (761)", "OBJECT_ID": "2022-161A", "EPOCH": "2025-12-25T03:29:54.558240", "MEAN_MOTION": 2.13102011, "ECCENTRICITY": 0.0008544, "INCLINATION": 64.739, "RA_OF_ASC_NODE": 198.4867, "ARG_OF_PERICENTER": 203.5994, "MEAN_ANOMALY": 156.4178, "EPHEMERIS_TYPE": 0, "CLASSIFICATION_TYPE": "U", "NORAD_CAT_ID": 54377, "ELEMENT_SET_NO": 999, "REV_AT_EPOCH": 2392, "BSTAR": 0, "MEAN_MOTION_DOT": 1.03e-06, "MEAN_MOTION_DDOT": 0}, "tle": {"line1": "1 54377U 22161A   25359.14577035  .00000103  00000+0  00000+0 0  9996", "line2": "2 54377  64.7390 198.4867 0008544 203.5994 156.4178  2.13102011 23922"}}, "geometry": {"type": "Point", "coordinates": [-111.17946341139607, 58.483210448745794]}}, {"type": "Feature", "properties": {"norad_id": 57517, "name": "COSMOS 2569 (703K)", "group": "glo-ops", "lat": 52.114626846463274, "lon": 114.85148534737482, "alt_km": 19143.05318289499, "timestamp": "2025-12-26T15:29:39.700656+00:00", "meta": {"OBJECT_NAME": "COSMOS 2569 (703K)", "OBJECT_ID": "2023-114A", "EPOCH": "2025-12-26T02:20:34.905408", "MEAN_MOTION": 2.13103952, "ECCENTRICITY": 0.00110098, "INCLINATION": 65.2009, "RA_OF_ASC_NODE": 78.4621, "ARG_OF_PERICENTER": 287.2132, "MEAN_ANOMALY": 72.7147, "EPHEMERIS_TYPE": 0, "CLASSIFICATION_TYPE": "U", "NORAD_CAT_ID": 57517, "ELEMENT_SET_NO": 999, "REV_AT_EPOCH": 1857, "BSTAR": 0, "MEAN_MOTION_DOT": -5e-08, "MEAN_MOTION_DDOT": 0}, "tle": {"line1": "1 57517U 23114A   25360.09762622 -.00000005  00000+0  00000+0 0  9990", "line2": "2 57517  65.2009  78.4621 0011009 287.2132  72.7147  2.13103952 18578"}}, "geometry": {"type": "Point", "coordinates": [114.85148534737482, 52.114626846463274]}}, {"type": "Feature", "properties": {"norad_id": 63130, "name": "COSMOS 2584 (704K)", "group": "glo-ops", "lat": 29.349892222440317, "lon": -116.51759740810813, "alt_km": 19120.83409356421, "timestamp": "2025-12-26T15:29:39.700666+00:00", "meta": {"OBJECT_NAME": "COSMOS 2584 (704K)", "OBJECT_ID": "2025-042A", "EPOCH": "2025-12-24T02:34:25.549824", "MEAN_MOTION": 2.13102981, "ECCENTRICITY": 0.00077651, "INCLINATION": 64.9819, "RA_OF_ASC_NODE": 78.7588, "ARG_OF_PERICENTER": 220.6893, "MEAN_ANOMALY": 139.3012, "EPHEMERIS_TYPE": 0, "CLASSIFICATION_TYPE": "U", "NORAD_CAT_ID": 63130, "ELEMENT_SET_NO": 999, "REV_AT_EPOCH": 631, "BSTAR": 0, "MEAN_MOTION_DOT": 1e-08, "MEAN_MOTION_DDOT": 0}, "tle": {"line1": "1 63130U 25042A   25358.10724016  .00000001  00000+0  00000+0 0  9999", "line2": "2 63130  64.9819  78.7588 0007765 220.6893 139.3012  2.13102981  6316"}}, "geometry": {"type": "Point", "coordinates": [-116.51759740810813, 29.349892222440317]}}, {"type": "Feature", "properties": {"norad_id": 65590, "name": "COSMOS 2596 (708K)", "group": "glo-ops", "lat": -64.38189530324425, "lon": -139.24278163511391, "alt_km": 19109.83788363116, "timestamp": "2025-12-26T15:29:39.700678+00:00", "meta": {"OBJECT_NAME": "COSMOS 2596 (708K)", "OBJECT_ID": "2025-206B", "EPOCH": "2025-12-24T10:04:00.075648", "MEAN_MOTION": 2.13100293, "ECCENTRICITY": 0.00140917, "INCLINATION": 64.738, "RA_OF_ASC_NODE": 321.0695, "ARG_OF_PERICENTER": 307.5813, "MEAN_ANOMALY": 50.2886, "EPHEMERIS_TYPE": 0, "CLASSIFICATION_TYPE": "U", "NORAD_CAT_ID": 65590, "ELEMENT_SET_NO": 999, "REV_AT_EPOCH": 218, "BSTAR": 0, "MEAN_MOTION_DOT": -3.5e-07, "MEAN_MOTION_DDOT": 0}, "tle": {"line1": "1 65590U 25206B   25358.41944532 -.00000035  00000+0  00000+0 0  9992", "line2": "2 65590  64.7380 321.0695 0014091 307.5813  50.2886  2.13100293  2184"}}, "geometry": {"type": "Point", "coordinates": [-139.24278163511391, -64.38189530324425]}}]}